NOAA 15                 
1 25338U 98030A   22359.45876081  .00000124  00000+0  69776-4 0  9996
2 25338  98.6257  26.3234 0011425 100.1535 260.0934 14.26212188280490
DMSP 5D-3 F15 (USA 147) 
1 25991U 99067A   22358.90970094  .00000167  00000+0  10682-3 0  9998
2 25991  99.0649 353.8698 0010321  14.7041 101.0349 14.16615309190735
DMSP 5D-3 F16 (USA 172) 
1 28054U 03048A   22359.49705149  .00000074  00000+0  63012-4 0  9990
2 28054  99.0027 351.4337 0007945 133.0825  20.1002 14.13718868990012
NOAA 18                 
1 28654U 05018A   22359.42488649  .00000218  00000+0  14091-3 0  9993
2 28654  98.9306  69.5278 0014884 148.9578 211.2476 14.12827398907033
METEOSAT-9 (MSG-2)      
1 28912U 05049B   22358.84714671  .00000133  00000+0  00000+0 0  9993
2 28912   6.4505  65.0327 0000587 209.5001 169.4415  1.00273405 62307
EWS-G1 (GOES 13)        
1 29155U 06018A   22358.73063024  .00000045  00000+0  00000+0 0  9999
2 29155   1.0638  93.2593 0006145 153.8521 170.7149  1.00275835 30636
DMSP 5D-3 F17 (USA 191) 
1 29522U 06050A   22359.46965825  .00000108  00000+0  79438-4 0  9990
2 29522  98.7605  10.8915 0010814  79.0822 281.1567 14.14151913832905
FENGYUN 3A              
1 32958U 08026A   22359.37834728  .00000097  00000+0  67078-4 0  9993
2 32958  98.5314 314.4626 0008527 184.2869 175.8236 14.18773915755404
FENGYUN 2E              
1 33463U 08066A   22358.75317326 -.00000200  00000+0  00000+0 0  9994
2 33463   6.3278  64.1585 0001051 263.7053 123.4611  1.00270943 51357
NOAA 19                 
1 33591U 09005A   22359.51892280  .00000149  00000+0  10511-3 0  9995
2 33591  99.1258  37.4636 0014045  15.2787 344.8805 14.12656101715428
GOES 14                 
1 35491U 09033A   22358.52896517 -.00000081  00000+0  00000+0 0  9998
2 35491   0.1359 254.1961 0017555 331.2664 313.7458  1.00269552 49372
METEOR-M 1              
1 35865U 09049A   22359.31385232  .00000107  00000+0  67310-4 0  9995
2 35865  98.5559 323.8803 0003091  48.9295 311.2150 14.22390853688818
DMSP 5D-3 F18 (USA 210) 
1 35951U 09057A   22359.51880091  .00000218  00000+0  13836-3 0  9991
2 35951  98.7466 334.4235 0010072 263.2467  96.7560 14.13610686680103
GOES 15                 
1 36411U 10008A   22359.40118865  .00000060  00000+0  00000+0 0  9992
2 36411   0.0885 286.5874 0003598 262.8110 281.4082  1.00260705 46920
COMS 1                  
1 36744U 10032A   22358.93534939 -.00000335  00000+0  00000+0 0  9995
2 36744   1.5577  91.5376 0000686 171.4513 295.3437  1.00271440 45915
FENGYUN 3B              
1 37214U 10059A   22359.51060254  .00000028  00000+0  38496-4 0  9999
2 37214  99.0912   8.8768 0022311 173.9665 186.1809 14.14280351627964
SUOMI NPP               
1 37849U 11061A   22359.49665927  .00000075  00000+0  56405-4 0  9994
2 37849  98.7529 295.5465 0001339  90.5894 334.7786 14.19528602578297
FENGYUN 2F              
1 38049U 12002A   22359.10995140 -.00000349  00000+0  00000+0 0  9994
2 38049   4.2586  78.2040 0002790 274.1105 252.5417  1.00256435 40152
METEOSAT-10 (MSG-3)     
1 38552U 12035B   22358.83999918  .00000071  00000+0  00000+0 0  9996
2 38552   1.8384  50.3640 0000964 176.0031 178.8362  1.00271161 38481
METOP-B                 
1 38771U 12049A   22359.47590278  .00000111  00000+0  70932-4 0  9992
2 38771  98.7054  56.5368 0001158 130.1175  65.7917 14.21488332532862
FENGYUN 3C              
1 39260U 13052A   22359.27543008  .00000123  00000+0  83003-4 0  9994
2 39260  98.4398  17.5875 0012209  85.1063 275.1491 14.15969961478923
METEOR-M 2              
1 40069U 14037A   22359.25054489  .00000034  00000+0  34846-4 0  9997
2 40069  98.4258   8.2939 0006613 122.0476 238.1342 14.20731376438952
HIMAWARI-8              
1 40267U 14060A   22358.86614035 -.00000266  00000+0  00000+0 0  9996
2 40267   0.0313 123.1655 0000934 164.4799 258.1991  1.00270750 30029
FENGYUN 2G              
1 40367U 14090A   22359.43166049 -.00000295  00000+0  00000+0 0  9993
2 40367   2.4143  87.5212 0000488 267.2590 353.7447  1.00283789 29307
METEOSAT-11 (MSG-4)     
1 40732U 15034A   22358.86299493  .00000007  00000+0  00000+0 0  9994
2 40732   0.4694 356.9449 0000476  89.8666 317.2784  1.00274035 27284
ELEKTRO-L 2             
1 41105U 15074A   22359.19378711 -.00000109  00000+0  00000+0 0  9995
2 41105   3.4660  85.8845 0002643 157.0659 266.0625  1.00271862 25784
HIMAWARI-9              
1 41836U 16064A   22359.21240153 -.00000266  00000+0  00000+0 0  9991
2 41836   0.0080  97.5522 0000805 211.4120   1.9667  1.00272010 22563
GOES 16                 
1 41866U 16071A   22358.82311062 -.00000237  00000+0  00000+0 0  9994
2 41866   0.0774 250.3712 0000581  70.2683 353.8070  1.00269706 22376
FENGYUN 4A              
1 41882U 16077A   22359.28931998 -.00000321  00000+0  00000+0 0  9999
2 41882   0.0297 346.8839 0005767  61.1419 254.5390  1.00268422 22244
CYGFM05                 
1 41884U 16078A   22359.31084481  .00003976  00000+0  19420-3 0  9990
2 41884  34.9563  92.1615 0014443 359.9392   0.1317 15.17621326333888
CYGFM04                 
1 41885U 16078B   22358.57109140  .00004221  00000+0  20295-3 0  9994
2 41885  34.9498  84.9220 0012777  11.9142 348.1871 15.18174409333722
CYGFM02                 
1 41886U 16078C   22358.62280776  .00004247  00000+0  20389-3 0  9998
2 41886  34.9588  86.8695 0013531   6.0073 354.0799 15.18215354333817
CYGFM01                 
1 41887U 16078D   22359.53493700  .00003360  00000+0  16535-3 0  9996
2 41887  34.9532  93.4674 0014835   0.8805 359.1931 15.17419755333882
CYGFM08                 
1 41888U 16078E   22359.26163953  .00003637  00000+0  17632-3 0  9997
2 41888  34.9504  86.9023 0013915  11.6988 348.4046 15.17916142333898
CYGFM07                 
1 41890U 16078G   22359.25179378  .00003676  00000+0  17707-3 0  9993
2 41890  34.9521  80.4581 0012168  16.2762 343.8339 15.18163000333980
CYGFM03                 
1 41891U 16078H   22358.92151752  .00003683  00000+0  17741-3 0  9999
2 41891  34.9555  83.0388 0011772  10.8981 349.1984 15.18163887333927
FENGYUN 3D              
1 43010U 17072A   22359.20222274  .00000096  00000+0  67131-4 0  9993
2 43010  98.8395 303.0394 0002419  85.1965 274.9492 14.19121300264825
NOAA 20                 
1 43013U 17073A   22359.51818907  .00000079  00000+0  58162-4 0  9990
2 43013  98.7368 295.2281 0000828 115.2388 244.8874 14.19538452264336
GOES 17                 
1 43226U 18022A   22359.45624100  .00000106  00000+0  00000+0 0  9998
2 43226   0.0255 151.2646 0000206 155.5455 174.0432  1.00271752 17705
FENGYUN 2H              
1 43491U 18050A   22358.85385843 -.00000119  00000+0  00000+0 0  9999
2 43491   1.6309  93.7787 0002452  69.4402 316.6636  1.00274330 16706
METOP-C                 
1 43689U 18087A   22359.47419382  .00000109  00000+0  69777-4 0  9992
2 43689  98.7100  56.5838 0003035 186.2279 173.8861 14.21494170214440
GEO-KOMPSAT-2A          
1 43823U 18100A   22359.53924755 -.00000337  00000+0  00000+0 0  9993
2 43823   0.0516 132.9297 0000466 320.5699 322.9070  1.00269907 14931
METEOR-M2 2             
1 44387U 19038A   22359.16785117  .00000038  00000+0  36157-4 0  9990
2 44387  98.7506 318.6657 0002370  83.8318 276.3144 14.23736398180543
FENGYUN 3E              
1 49008U 21062A   22359.28891780  .00000016  00000+0  28154-4 0  9996
2 49008  98.7170 358.2941 0002350 133.3315 226.8061 14.19750063 76392
GOES 18                 
1 51850U 22021A   22359.53104905  .00000104  00000+0  00000+0 0  9997
2 51850   0.0225 177.4026 0000920  77.8236 253.0410  1.00272087  3073
NOAA 21 (JPSS-2)        
1 54234U 22150A   22358.83122874  .00000082  00000+0  59372-4 0  9992
2 54234  98.7006 294.6686 0001083  86.5259 273.6041 14.19548283  6316
METEOSAT-12             
1 54743U 22170C   22353.31524981 -.00000002  00000+0  00000+0 0  9994
2 54743   5.5504 217.8990 7131836 181.4542 110.3708  2.25104636   115
